IRIDIUM 65 [+]          
1 25288U 98021D   17312.51393989  .00000017  00000-0 -10469-5 0  9990
2 25288  86.3968 163.5678 0001878  88.5170 271.6241 14.34221483 25705
IRIDIUM 66 [+]          
1 25289U 98021E   17312.52027140  .00000020  00000-0  13432-6 0  9992
2 25289  86.3968 163.4674 0001869  85.6367 274.5042 14.34222357 25697
IRIDIUM 67 [+]          
1 25290U 98021F   17312.52661288  .00000011  00000-0 -32136-5 0  9993
2 25290  86.3969 163.6032 0001936  86.2138 273.9279 14.34221148 25713
IRIDIUM 68 [+]          
1 25291U 98021G   17312.18413142  .00000024  00000-0  16396-5 0  9993
2 25291  86.3972 163.8676 0001973  87.6094 272.5328 14.34221503 25648
IRIDIUM 69 [-]          
1 25319U 98026A   17312.50162256  .00000156  00000-0  44265-4 0  9993
2 25319  86.4029 185.0379 0003149 123.0193 237.1308 14.38701843 23783
IRIDIUM 71 [-]          
1 25320U 98026B   17312.24188764  .00000151  00000-0  42462-4 0  9990
2 25320  86.4008 180.9717 0001268 160.0287 200.0962 14.39115301 24186
IRIDIUM 70 [+]          
1 25342U 98032A   17312.56875347  .00000025  00000-0  18715-5 0  9991
2 25342  86.3976 163.9557 0001818  85.7290 328.2146 14.34221385 19797
IRIDIUM 72 [+]          
1 25343U 98032B   17312.54563320  .00000011  00000-0 -31854-5 0  9990
2 25343  86.3969 163.5678 0001925  86.5144 273.6272 14.34222180 19793
IRIDIUM 73 [-]          
1 25344U 98032C   17312.53658198  .00000182  00000-0  42506-4 0  9991
2 25344  86.4409 141.9873 0001643  78.2803 281.8585 14.49073542 28451
IRIDIUM 75 [+]          
1 25346U 98032E   17312.55198226  .00000097  00000-0  27478-4 0  9992
2 25346  86.3973 163.8224 0001945  86.4500 273.6919 14.34222285 20367
IRIDIUM 3 [+]           
1 25431U 98048A   17312.28425771  .00000241  00000-0  78971-4 0  9997
2 25431  86.4008 195.4919 0001834  84.2184  55.1059 14.34220643  6273
IRIDIUM 76 [+]          
1 25432U 98048B   17312.27631617  .00000224  00000-0  72893-4 0  9993
2 25432  86.4005 195.2448 0001934  76.9761 283.1650 14.34223503  6241
IRIDIUM 82 [-]          
1 25467U 98051A   17312.52221772  .00001646  00000-0  12413-3 0  9990
2 25467  86.3973 314.6718 0180373 236.3128 122.0789 14.89575119  8321
IRIDIUM 81 [+]          
1 25468U 98051B   17312.50304167  .00000028  00000-0  27428-5 0  9996
2 25468  86.4202 321.4930 0002276  84.8753 275.2705 14.38609933  3594
IRIDIUM 80 [+]          
1 25469U 98051C   17312.47015084 -.00000037  00000-0 -20348-4 0  9995
2 25469  86.3931 321.7797 0002399 102.6609   8.5432 14.34216996  3517
IRIDIUM 2 [-]           
1 25527U 98066A   17312.47860980  .00002627  00000-0  13127-3 0  9990
2 25527  85.5268 307.0523 0006619 284.6536  75.3970 15.16962198 39745
IRIDIUM 86 [+]          
1 25528U 98066B   17312.46419218 -.00000050  00000-0 -24753-4 0  9992
2 25528  86.3914 289.4537 0001933  84.2986 275.8430 14.34215321    45
IRIDIUM 84 [+]          
1 25530U 98066D   17312.49589965 -.00000037  00000-0 -20122-4 0  9996
2 25530  86.3916 289.6077 0002116  81.8295 278.3140 14.34215502997683
IRIDIUM 83 [+]          
1 25531U 98066E   17312.45784445 -.00000052  00000-0 -25714-4 0  9992
2 25531  86.3919 289.7551 0002177  82.9046 277.2398 14.34215556995037
IRIDIUM 20 [+]          
1 25577U 98074A   17312.23826672  .00000233  00000-0  76280-4 0  9999
2 25577  86.4003 195.1802 0001955  84.1378 276.0040 14.34221209989087
IRIDIUM 11 [+]          
1 25578U 98074B   17312.27786365  .00000217  00000-0  70558-4 0  9992
2 25578  86.4003 195.3640 0001986  86.6467  52.3346 14.34222822998053
IRIDIUM 14 [+]          
1 25777U 99032A   17312.50124932  .00000011  00000-0 -32329-5 0  9998
2 25777  86.3971 163.6727 0001841  87.3558 272.7849 14.34221595975361
IRIDIUM 21 [+]          
1 25778U 99032B   17312.53928898  .00000019  00000-0 -37944-6 0  9992
2 25778  86.3971 163.6737 0002022  82.6131 277.5295 14.34222371968802
IRIDIUM 91 [+]          
1 27372U 02005A   17312.46113606  .00000289  00000-0  96262-4 0  9997
2 27372  86.4004 226.8451 0001785  70.9765  47.0455 14.34220168832300
IRIDIUM 90 [S]          
1 27373U 02005B   17312.43170699 -.00000020  00000-0 -12173-4 0  9994
2 27373  86.4429 289.7561 0002038  81.1948 278.9484 14.42943481832150
IRIDIUM 94 [+]          
1 27374U 02005C   17312.29671986  .00000228  00000-0  74333-4 0  9998
2 27374  86.4005 195.4895 0001620  65.7548  72.3852 14.34222841836604
IRIDIUM 95 [+]          
1 27375U 02005D   17312.33683961  .00000261  00000-0  86313-4 0  9998
2 27375  86.4001 226.9145 0002181  58.5393 301.6015 14.34215527831573
IRIDIUM 96 [+]          
1 27376U 02005E   17312.45439985  .00000220  00000-0  71635-4 0  9993
2 27376  86.3989 258.9243 0002969  64.8017 295.3487 14.34216888836791
IRIDIUM 97 [+]          
1 27450U 02031A   17312.35290282  .00000017  00000-0 -11587-5 0  9995
2 27450  86.3955 258.5915 0002275  83.2257 276.9198 14.34214020810893
IRIDIUM 98 [+]          
1 27451U 02031B   17312.45499837 -.00000023  00000-0 -15115-4 0  9992
2 27451  86.3925 321.8738 0001805  99.1528 260.9872 14.34217472811980
